{"type": "FeatureCollection", "features": [ {"type": "Feature", "properties": {"norad_id": 34303, "name": "COSMOS 2251 DEB", "group": "cosmos-2251-debris", "lat": -70.34998839695032, "lon": -116.72092921170068, "alt_km": 804.6225599136251, "timestamp": "2025-12-08T03:50:07.390042+00:00", "meta": {"OBJECT_NAME": "COSMOS 2251 DEB", "OBJECT_ID": "1993-036MZ", "EPOCH": "2025-12-07T03:30:11.230848", "MEAN_MOTION": 14.54338689, "ECCENTRICITY": 0.01349516, "INCLINATION": 74.006, "RA_OF_ASC_NODE": 298.6428, "ARG_OF_PERICENTER": 78.43, "MEAN_ANOMALY": 297.843, "EPHEMERIS_TYPE": 0, "CLASSIFICATION_TYPE": "U", "NORAD_CAT_ID": 34303, "ELEMENT_SET_NO": 999, "REV_AT_EPOCH": 87881, "BSTAR": 0.0020973599, "MEAN_MOTION_DOT": 0.00010042, "MEAN_MOTION_DDOT": 0}, "tle": {"line1": "1 34303U 93036MZ  25341.14596332  .00010042  00000+0  20974-2 0  9992", "line2": "2 34303  74.0060 298.6428 0134951  78.4300 297.8430 14.54338689878812"}}, "geometry": {"type": "Point", "coordinates": [-116.72092921170068, -70.34998839695032]}}, {"type": "Feature", "properties": {"norad_id": 34304, "name": "COSMOS 2251 DEB", "group": "cosmos-2251-debris", "lat": -49.59759119624003, "lon": 111.35956787165016, "alt_km": 699.2600364868676, "timestamp": "2025-12-08T03:50:07.390054+00:00", "meta": {"OBJECT_NAME": "COSMOS 2251 DEB", "OBJECT_ID": "1993-036NA", "EPOCH": "2025-12-06T21:03:32.080896", "MEAN_MOTION": 14.377752, "ECCENTRICITY": 0.01289164, "INCLINATION": 74.0129, "RA_OF_ASC_NODE": 133.4074, "ARG_OF_PERICENTER": 272.3977, "MEAN_ANOMALY": 239.5622, "EPHEMERIS_TYPE": 0, "CLASSIFICATION_TYPE": "U", "NORAD_CAT_ID": 34304, "ELEMENT_SET_NO": 999, "REV_AT_EPOCH": 87212, "BSTAR": 0.0023766979, "MEAN_MOTION_DOT": 7.858e-05, "MEAN_MOTION_DDOT": 0}, "tle": {"line1": "1 34304U 93036NA  25340.87745464  .00007858  00000+0  23767-2 0  9998", "line2": "2 34304  74.0129 133.4074 0128916 272.3977 239.5622 14.37775200872120"}}, "geometry": {"type": "Point", "coordinates": [111.35956787165016, -49.59759119624003]}}, {"type": "Feature", "properties": {"norad_id": 34307, "name": "COSMOS 2251 DEB", "group": "cosmos-2251-debris", "lat": 72.74537481910444, "lon": 27.47067679242545, "alt_km": 935.0223654917772, "timestamp": "2025-12-08T03:50:07.390065+00:00", "meta": {"OBJECT_NAME": "COSMOS 2251 DEB", "OBJECT_ID": "1993-036ND", "EPOCH": "2025-12-06T09:36:06.433344", "MEAN_MOTION": 13.54308603, "ECCENTRICITY": 0.03922456, "INCLINATION": 74.053, "RA_OF_ASC_NODE": 323.2886, "ARG_OF_PERICENTER": 155.6194, "MEAN_ANOMALY": 355.4854, "EPHEMERIS_TYPE": 0, "CLASSIFICATION_TYPE": "U", "NORAD_CAT_ID": 34307, "ELEMENT_SET_NO": 999, "REV_AT_EPOCH": 82776, "BSTAR": 0.00098411458, "MEAN_MOTION_DOT": 1.076e-05, "MEAN_MOTION_DDOT": 0}, "tle": {"line1": "1 34307U 93036ND  25340.40007446  .00001076  00000+0  98411-3 0  9996", "line2": "2 34307  74.0530 323.2886 0392245 155.6194 355.4854 13.54308603827763"}}, "geometry": {"type": "Point", "coordinates": [27.47067679242545, 72.74537481910444]}}, {"type": "Feature", "properties": {"norad_id": 34313, "name": "COSMOS 2251 DEB", "group": "cosmos-2251-debris", "lat": 47.62688016940411, "lon": -26.522689300408263, "alt_km": 501.07256789831627, "timestamp": "2025-12-08T03:50:07.390075+00:00", "meta": {"OBJECT_NAME": "COSMOS 2251 DEB", "OBJECT_ID": "1993-036NK", "EPOCH": "2025-12-07T05:28:09.418656", "MEAN_MOTION": 15.17761996, "ECCENTRICITY": 0.00112301, "INCLINATION": 73.972, "RA_OF_ASC_NODE": 317.0629, "ARG_OF_PERICENTER": 87.78, "MEAN_ANOMALY": 272.4682, "EPHEMERIS_TYPE": 0, "CLASSIFICATION_TYPE": "U", "NORAD_CAT_ID": 34313, "ELEMENT_SET_NO": 999, "REV_AT_EPOCH": 88981, "BSTAR": 0.0057396984, "MEAN_MOTION_DOT": 0.00117998, "MEAN_MOTION_DDOT": 0}, "tle": {"line1": "1 34313U 93036NK  25341.22788679  .00117998  00000+0  57397-2 0  9996", "line2": "2 34313  73.9720 317.0629 0011230  87.7800 272.4682 15.17761996889816"}}, "geometry": {"type": "Point", "coordinates": [-26.522689300408263, 47.62688016940411]}}, {"type": "Feature", "properties": {"norad_id": 34314, "name": "COSMOS 2251 DEB", "group": "cosmos-2251-debris", "lat": -59.78872517701345, "lon": -72.95344860057183, "alt_km": 885.4137363094023, "timestamp": "2025-12-08T03:50:07.390085+00:00", "meta": {"OBJECT_NAME": "COSMOS 2251 DEB", "OBJECT_ID": "1993-036NL", "EPOCH": "2025-12-07T03:18:46.739808", "MEAN_MOTION": 14.17402223, "ECCENTRICITY": 0.01026496, "INCLINATION": 74.0055, "RA_OF_ASC_NODE": 318.3801, "ARG_OF_PERICENTER": 65.4902, "MEAN_ANOMALY": 59.8047, "EPHEMERIS_TYPE": 0, "CLASSIFICATION_TYPE": "U", "NORAD_CAT_ID": 34314, "ELEMENT_SET_NO": 999, "REV_AT_EPOCH": 86578, "BSTAR": 0.0010683381, "MEAN_MOTION_DOT": 2.254e-05, "MEAN_MOTION_DDOT": 0}, "tle": {"line1": "1 34314U 93036NL  25341.13804097  .00002254  00000+0  10683-2 0  9995", "line2": "2 34314  74.0055 318.3801 0102649  65.4902  59.8047 14.17402223865783"}}, "geometry": {"type": "Point", "coordinates": [-72.95344860057183, -59.78872517701345]}}, {"type": "Feature", "properties": {"norad_id": 34316, "name": "COSMOS 2251 DEB", "group": "cosmos-2251-debris", "lat": -15.057007188684528, "lon": -18.344338304822216, "alt_km": 597.1038107188169, "timestamp": "2025-12-08T03:50:07.390095+00:00", "meta": {"OBJECT_NAME": "COSMOS 2251 DEB", "OBJECT_ID": "1993-036NN", "EPOCH": "2025-12-07T06:58:46.161120", "MEAN_MOTION": 14.91581572, "ECCENTRICITY": 0.00080438, "INCLINATION": 74.0667, "RA_OF_ASC_NODE": 347.8024, "ARG_OF_PERICENTER": 74.6353, "MEAN_ANOMALY": 285.5718, "EPHEMERIS_TYPE": 0, "CLASSIFICATION_TYPE": "U", "NORAD_CAT_ID": 34316, "ELEMENT_SET_NO": 999, "REV_AT_EPOCH": 89128, "BSTAR": 0.0023910777, "MEAN_MOTION_DOT": 0.00024052, "MEAN_MOTION_DDOT": 0}, "tle": {"line1": "1 34316U 93036NN  25341.29081205  .00024052  00000+0  23911-2 0  9990", "line2": "2 34316  74.0667 347.8024 0008043  74.6353 285.5718 14.91581572891287"}}, "geometry": {"type": "Point", "coordinates": [-18.344338304822216, -15.057007188684528]}}, {"type": "Feature", "properties": {"norad_id": 34317, "name": "COSMOS 2251 DEB", "group": "cosmos-2251-debris", "lat": 13.736731894854005, "lon": 47.34026813375137, "alt_km": 781.7140565560112, "timestamp": "2025-12-08T03:50:07.390106+00:00", "meta": {"OBJECT_NAME": "COSMOS 2251 DEB", "OBJECT_ID": "1993-036NP", "EPOCH": "2025-12-06T13:38:39.713280", "MEAN_MOTION": 13.65114173, "ECCENTRICITY": 0.03363412, "INCLINATION": 73.925, "RA_OF_ASC_NODE": 45.9169, "ARG_OF_PERICENTER": 36.3808, "MEAN_ANOMALY": 81.9119, "EPHEMERIS_TYPE": 0, "CLASSIFICATION_TYPE": "U", "NORAD_CAT_ID": 34317, "ELEMENT_SET_NO": 999, "REV_AT_EPOCH": 83535, "BSTAR": 0.00061437851, "MEAN_MOTION_DOT": 7.11e-06, "MEAN_MOTION_DDOT": 0}, "tle": {"line1": "1 34317U 93036NP  25340.56851520  .00000711  00000+0  61438-3 0  9998", "line2": "2 34317  73.9250  45.9169 0336341  36.3808  81.9119 13.65114173835353"}}, "geometry": {"type": "Point", "coordinates": [47.34026813375137, 13.736731894854005]}}, {"type": "Feature", "properties": {"norad_id": 34321, "name": "COSMOS 2251 DEB", "group": "cosmos-2251-debris", "lat": 71.0695527103602, "lon": -71.65663118355049, "alt_km": 729.147248993726, "timestamp": "2025-12-08T03:50:07.390115+00:00", "meta": {"OBJECT_NAME": "COSMOS 2251 DEB", "OBJECT_ID": "1993-036NT", "EPOCH": "2025-12-06T23:46:29.035776", "MEAN_MOTION": 14.50018153, "ECCENTRICITY": 0.00156892, "INCLINATION": 74.0279, "RA_OF_ASC_NODE": 167.1628, "ARG_OF_PERICENTER": 296.9889, "MEAN_ANOMALY": 182.4283, "EPHEMERIS_TYPE": 0, "CLASSIFICATION_TYPE": "U", "NORAD_CAT_ID": 34321, "ELEMENT_SET_NO": 999, "REV_AT_EPOCH": 88403, "BSTAR": 0.0008989209, "MEAN_MOTION_DOT": 3.462e-05, "MEAN_MOTION_DDOT": 0}, "tle": {"line1": "1 34321U 93036NT  25340.99061384  .00003462  00000+0  89892-3 0  9991", "line2": "2 34321  74.0279 167.1628 0015689 296.9889 182.4283 14.50018153884034"}}, "geometry": {"type": "Point", "coordinates": [-71.65663118355049, 71.0695527103602]}}, {"type": "Feature", "properties": {"norad_id": 34323, "name": "COSMOS 2251 DEB", "group": "cosmos-2251-debris", "lat": 68.2789206959126, "lon": 178.36119171505476, "alt_km": 649.3406775279136, "timestamp": "2025-12-08T03:50:07.390126+00:00", "meta": {"OBJECT_NAME": "COSMOS 2251 DEB", "OBJECT_ID": "1993-036NV", "EPOCH": "2025-12-07T03:35:20.256000", "MEAN_MOTION": 14.74130585, "ECCENTRICITY": 0.0060224, "INCLINATION": 73.9533, "RA_OF_ASC_NODE": 134.0819, "ARG_OF_PERICENTER": 179.487, "MEAN_ANOMALY": 297.149, "EPHEMERIS_TYPE": 0, "CLASSIFICATION_TYPE": "U", "NORAD_CAT_ID": 34323, "ELEMENT_SET_NO": 999, "REV_AT_EPOCH": 88357, "BSTAR": 0.0040214043, "MEAN_MOTION_DOT": 0.00027373, "MEAN_MOTION_DDOT": 0}, "tle": {"line1": "1 34323U 93036NV  25341.14954000  .00027373  00000+0  40214-2 0  9998", "line2": "2 34323  73.9533 134.0819 0060224 179.4870 297.1490 14.74130585883574"}}, "geometry": {"type": "Point", "coordinates": [178.36119171505476, 68.2789206959126]}}, {"type": "Feature", "properties": {"norad_id": 34325, "name": "COSMOS 2251 DEB", "group": "cosmos-2251-debris", "lat": 2.460060898452591, "lon": -158.41055369520566, "alt_km": 992.270331353855, "timestamp": "2025-12-08T03:50:07.390136+00:00", "meta": {"OBJECT_NAME": "COSMOS 2251 DEB", "OBJECT_ID": "1993-036NX", "EPOCH": "2025-12-07T01:12:05.289408", "MEAN_MOTION": 14.04422165, "ECCENTRICITY": 0.01928086, "INCLINATION": 73.8712, "RA_OF_ASC_NODE": 202.8316, "ARG_OF_PERICENTER": 221.3081, "MEAN_ANOMALY": 291.3893, "EPHEMERIS_TYPE": 0, "CLASSIFICATION_TYPE": "U", "NORAD_CAT_ID": 34325, "ELEMENT_SET_NO": 999, "REV_AT_EPOCH": 85435, "BSTAR": 0.0027607105, "MEAN_MOTION_DOT": 5.168e-05, "MEAN_MOTION_DDOT": 0}, "tle": {"line1": "1 34325U 93036NX  25341.05006122  .00005168  00000+0  27607-2 0  9992", "line2": "2 34325  73.8712 202.8316 0192808 221.3081 291.3893 14.04422165854353"}}, "geometry": {"type": "Point", "coordinates": [-158.41055369520566, 2.460060898452591]}}]}